{
  "type": "FeatureCollection",
  "features": [
    {
      "type": "Feature",
      "properties": {
        "norad_id": 66642,
        "name": "STARLINK-35926",
        "group": "last-30-days",
        "lat": 47.986184195469946,
        "lon": -92.80771265287379,
        "alt_km": 348.915269329319,
        "timestamp": "2025-12-07T20:38:12.868241+00:00",
        "meta_object_name": "STARLINK-35926",
        "meta_object_id": "2025-271AB",
        "meta_epoch": "2025-12-07T06:00:04.999968",
        "meta_mean_motion": 15.73610406,
        "meta_eccentricity": 8.412e-05,
        "meta_inclination": 53.1579,
        "meta_ra_of_asc_node": 213.873,
        "meta_arg_of_pericenter": 69.8286,
        "meta_mean_anomaly": 144.7055,
        "meta_ephemeris_type": 0,
        "meta_classification_type": "U",
        "meta_norad_cat_id": 66642,
        "meta_element_set_no": 999,
        "meta_rev_at_epoch": 312,
        "meta_bstar": -0.015564293,
        "meta_mean_motion_dot": -0.01928169,
        "meta_mean_motion_ddot": 0,
        "tle_line1": "1 66642U 25271AB  25341.25005787 -.01928169  00000+0 -15564-1 0  9999",
        "tle_line2": "2 66642  53.1579 213.8730 0000841  69.8286 144.7055 15.73610406  3127"
      },
      "geometry": {
        "type": "Point",
        "coordinates": [
          -92.80771265287379,
          47.986184195469946
        ]
      }
    },
    {
      "type": "Feature",
      "properties": {
        "norad_id": 66643,
        "name": "STARLINK-35918",
        "group": "last-30-days",
        "lat": 46.170635058575776,
        "lon": -97.77832064650352,
        "alt_km": 349.1399906761253,
        "timestamp": "2025-12-07T20:38:12.868251+00:00",
        "meta_object_name": "STARLINK-35918",
        "meta_object_id": "2025-271AC",
        "meta_epoch": "2025-12-07T06:00:04.999968",
        "meta_mean_motion": 15.73612314,
        "meta_eccentricity": 0.00010191,
        "meta_inclination": 53.1578,
        "meta_ra_of_asc_node": 213.8813,
        "meta_arg_of_pericenter": 87.2137,
        "meta_mean_anomaly": 123.4912,
        "meta_ephemeris_type": 0,
        "meta_classification_type": "U",
        "meta_norad_cat_id": 66643,
        "meta_element_set_no": 999,
        "meta_rev_at_epoch": 336,
        "meta_bstar": -0.015633604,
        "meta_mean_motion_dot": -0.01976221,
        "meta_mean_motion_ddot": 0,
        "tle_line1": "1 66643U 25271AC  25341.25005787 -.01976221  00000+0 -15634-1 0  9990",
        "tle_line2": "2 66643  53.1578 213.8813 0001019  87.2137 123.4912 15.73612314  3368"
      },
      "geometry": {
        "type": "Point",
        "coordinates": [
          -97.77832064650352,
          46.170635058575776
        ]
      }
    },
    {
      "type": "Feature",
      "properties": {
        "norad_id": 66644,
        "name": "STARLINK-35938",
        "group": "last-30-days",
        "lat": 47.105176007662,
        "lon": -95.33563905796166,
        "alt_km": 349.15488939227725,
        "timestamp": "2025-12-07T20:38:12.868265+00:00",
        "meta_object_name": "STARLINK-35938",
        "meta_object_id": "2025-271AD",
        "meta_epoch": "2025-12-07T06:00:04.999968",
        "meta_mean_motion": 15.73606087,
        "meta_eccentricity": 7.251e-05,
        "meta_inclination": 53.1577,
        "meta_ra_of_asc_node": 213.8771,
        "meta_arg_of_pericenter": 71.5171,
        "meta_mean_anomaly": 141.1071,
        "meta_ephemeris_type": 0,
        "meta_classification_type": "U",
        "meta_norad_cat_id": 66644,
        "meta_element_set_no": 999,
        "meta_rev_at_epoch": 336,
        "meta_bstar": -0.015566573,
        "meta_mean_motion_dot": -0.01928,
        "meta_mean_motion_ddot": 0,
        "tle_line1": "1 66644U 25271AD  25341.25005787 -.01928000  00000+0 -15567-1 0  9998",
        "tle_line2": "2 66644  53.1577 213.8771 0000725  71.5171 141.1071 15.73606087  3361"
      },
      "geometry": {
        "type": "Point",
        "coordinates": [
          -95.33563905796166,
          47.105176007662
        ]
      }
    },
    {
      "type": "Feature",
      "properties": {
        "norad_id": 66645,
        "name": "SHENZHOU-22",
        "group": "last-30-days",
        "lat": 40.23209700372953,
        "lon": 119.66482241052513,
        "alt_km": 383.87206091264943,
        "timestamp": "2025-12-07T20:38:12.868275+00:00",
        "meta_object_name": "SHENZHOU-22",
        "meta_object_id": "2025-272A",
        "meta_epoch": "2025-12-07T06:28:07.735872",
        "meta_mean_motion": 15.58832972,
        "meta_eccentricity": 0.00093583,
        "meta_inclination": 41.4682,
        "meta_ra_of_asc_node": 49.9091,
        "meta_arg_of_pericenter": 347.392,
        "meta_mean_anomaly": 12.6683,
        "meta_ephemeris_type": 0,
        "meta_classification_type": "U",
        "meta_norad_cat_id": 66645,
        "meta_element_set_no": 999,
        "meta_rev_at_epoch": 26300,
        "meta_bstar": 0.0003547841,
        "meta_mean_motion_dot": 0.00028044,
        "meta_mean_motion_ddot": 0,
        "tle_line1": "1 66645U 25272A   25341.26953398  .00028044  00000+0  35478-3 0  9992",
        "tle_line2": "2 66645  41.4682  49.9091 0009358 347.3920  12.6683 15.58832972263006"
      },
      "geometry": {
        "type": "Point",
        "coordinates": [
          119.66482241052513,
          40.23209700372953
        ]
      }
    },
    {
      "type": "Feature",
      "properties": {
        "norad_id": 66646,
        "name": "CZ-2F R/B",
        "group": "last-30-days",
        "lat": 41.36183723060988,
        "lon": 133.77928950147242,
        "alt_km": 124.08357094932671,
        "timestamp": "2025-12-07T20:38:12.868320+00:00",
        "meta_object_name": "CZ-2F R/B",
        "meta_object_id": "2025-272B",
        "meta_epoch": "2025-12-07T13:00:15.028704",
        "meta_mean_motion": 16.47453798,
        "meta_eccentricity": 0.002214,
        "meta_inclination": 41.4535,
        "meta_ra_of_asc_node": 41.9834,
        "meta_arg_of_pericenter": 229.6731,
        "meta_mean_anomaly": 130.2205,
        "meta_ephemeris_type": 0,
        "meta_classification_type": "U",
        "meta_norad_cat_id": 66646,
        "meta_element_set_no": 999,
        "meta_rev_at_epoch": 200,
        "meta_bstar": 0.00015075,
        "meta_mean_motion_dot": 0.11903621,
        "meta_mean_motion_ddot": 8.0762e-06,
        "tle_line1": "1 66646U 25272B   25341.54184061  .11903621  80762-5  15075-3 0  9992",
        "tle_line2": "2 66646  41.4535  41.9834 0022140 229.6731 130.2205 16.47453798  2009"
      },
      "geometry": {
        "type": "Point",
        "coordinates": [
          133.77928950147242,
          41.36183723060988
        ]
      }
    },
    {
      "type": "Feature",
      "properties": {
        "norad_id": 66647,
        "name": "COSMOS 2597 (RODNIK-S 22)",
        "group": "last-30-days",
        "lat": -78.6800214371876,
        "lon": 150.6409628111854,
        "alt_km": 1500.815275840595,
        "timestamp": "2025-12-07T20:38:12.868336+00:00",
        "meta_object_name": "COSMOS 2597 (RODNIK-S 22)",
        "meta_object_id": "2025-273A",
        "meta_epoch": "2025-12-07T05:41:55.534848",
        "meta_mean_motion": 12.41951141,
        "meta_eccentricity": 0.00080131,
        "meta_inclination": 82.4981,
        "meta_ra_of_asc_node": 289.866,
        "meta_arg_of_pericenter": 302.2298,
        "meta_mean_anomaly": 57.8004,
        "meta_ephemeris_type": 0,
        "meta_classification_type": "U",
        "meta_norad_cat_id": 66647,
        "meta_element_set_no": 999,
        "meta_rev_at_epoch": 145,
        "meta_bstar": 7.0086595e-05,
        "meta_mean_motion_dot": 1.9e-07,
        "meta_mean_motion_ddot": 0,
        "tle_line1": "1 66647U 25273A   25341.23744832  .00000019  00000+0  70087-4 0  9991",
        "tle_line2": "2 66647  82.4981 289.8660 0008013 302.2298  57.8004 12.41951141  1453"
      },
      "geometry": {
        "type": "Point",
        "coordinates": [
          150.6409628111854,
          -78.6800214371876
        ]
      }
    },
    {
      "type": "Feature",
      "properties": {
        "norad_id": 66648,
        "name": "COSMOS 2598 (RODNIK-S 23)",
        "group": "last-30-days",
        "lat": -78.43715732503193,
        "lon": -110.57432061329108,
        "alt_km": 1496.349316443212,
        "timestamp": "2025-12-07T20:38:12.868350+00:00",
        "meta_object_name": "COSMOS 2598 (RODNIK-S 23)",
        "meta_object_id": "2025-273B",
        "meta_epoch": "2025-12-07T05:37:01.004160",
        "meta_mean_motion": 12.42861705,
        "meta_eccentricity": 0.00072516,
        "meta_inclination": 82.5029,
        "meta_ra_of_asc_node": 289.8732,
        "meta_arg_of_pericenter": 264.535,
        "meta_mean_anomaly": 95.4902,
        "meta_ephemeris_type": 0,
        "meta_classification_type": "U",
        "meta_norad_cat_id": 66648,
        "meta_element_set_no": 999,
        "meta_rev_at_epoch": 145,
        "meta_bstar": 2.3127769e-05,
        "meta_mean_motion_dot": 1.3e-07,
        "meta_mean_motion_ddot": 0,
        "tle_line1": "1 66648U 25273B   25341.23403940  .00000013  00000+0  23128-4 0  9992",
        "tle_line2": "2 66648  82.5029 289.8732 0007251 264.5350  95.4902 12.42861705  1452"
      },
      "geometry": {
        "type": "Point",
        "coordinates": [
          -110.57432061329108,
          -78.43715732503193
        ]
      }
    }
  ]
}